{"type": "FeatureCollection", "features": [ {"type": "Feature", "properties": {"norad_id": 34077, "name": "IRIDIUM 33 DEB", "group": "iridium-33-debris", "lat": -80.79798788456846, "lon": 32.642876782045576, "alt_km": 692.575216275728, "timestamp": "2025-12-03T10:52:57.839900+00:00", "meta": {"OBJECT_NAME": "IRIDIUM 33 DEB", "OBJECT_ID": "1997-051CL", "EPOCH": "2025-12-03T04:49:49.512864", "MEAN_MOTION": 14.64572021, "ECCENTRICITY": 0.0010961, "INCLINATION": 86.3873, "RA_OF_ASC_NODE": 55.7079, "ARG_OF_PERICENTER": 69.3732, "MEAN_ANOMALY": 320.4311, "EPHEMERIS_TYPE": 0, "CLASSIFICATION_TYPE": "U", "NORAD_CAT_ID": 34077, "ELEMENT_SET_NO": 999, "REV_AT_EPOCH": 88193, "BSTAR": 0.0022894, "MEAN_MOTION_DOT": 0.0001219, "MEAN_MOTION_DDOT": 0}, "tle": {"line1": "1 34077U 97051CL  25337.20126751  .00012190  00000+0  22894-2 0  9996", "line2": "2 34077  86.3873  55.7079 0010961  69.3732 320.4311 14.64572021881933"}}, "geometry": {"type": "Point", "coordinates": [32.642876782045576, -80.79798788456846]}}, {"type": "Feature", "properties": {"norad_id": 34079, "name": "IRIDIUM 33 DEB", "group": "iridium-33-debris", "lat": 8.747119089924638, "lon": 13.44289377934211, "alt_km": 617.1423588325433, "timestamp": "2025-12-03T10:52:57.839911+00:00", "meta": {"OBJECT_NAME": "IRIDIUM 33 DEB", "OBJECT_ID": "1997-051CN", "EPOCH": "2025-12-03T02:59:12.786720", "MEAN_MOTION": 14.83124546, "ECCENTRICITY": 0.000675, "INCLINATION": 86.3786, "RA_OF_ASC_NODE": 13.034, "ARG_OF_PERICENTER": 37.1097, "MEAN_ANOMALY": 16.3841, "EPHEMERIS_TYPE": 0, "CLASSIFICATION_TYPE": "U", "NORAD_CAT_ID": 34079, "ELEMENT_SET_NO": 999, "REV_AT_EPOCH": 88835, "BSTAR": 0.0021591, "MEAN_MOTION_DOT": 0.0001765, "MEAN_MOTION_DDOT": 0}, "tle": {"line1": "1 34079U 97051CN  25337.12445355  .00017650  00000+0  21591-2 0  9992", "line2": "2 34079  86.3786  13.0340 0006750  37.1097  16.3841 14.83124546888352"}}, "geometry": {"type": "Point", "coordinates": [13.44289377934211, 8.747119089924638]}}, {"type": "Feature", "properties": {"norad_id": 34088, "name": "IRIDIUM 33 DEB", "group": "iridium-33-debris", "lat": -23.487153014892677, "lon": -143.43767448027128, "alt_km": 598.020749299917, "timestamp": "2025-12-03T10:52:57.839922+00:00", "meta": {"OBJECT_NAME": "IRIDIUM 33 DEB", "OBJECT_ID": "1997-051CX", "EPOCH": "2025-12-03T03:39:34.765344", "MEAN_MOTION": 14.90613486, "ECCENTRICITY": 0.0005128, "INCLINATION": 86.3861, "RA_OF_ASC_NODE": 35.1266, "ARG_OF_PERICENTER": 211.9517, "MEAN_ANOMALY": 177.5165, "EPHEMERIS_TYPE": 0, "CLASSIFICATION_TYPE": "U", "NORAD_CAT_ID": 34088, "ELEMENT_SET_NO": 999, "REV_AT_EPOCH": 88599, "BSTAR": 0.0035306, "MEAN_MOTION_DOT": 0.00034721, "MEAN_MOTION_DDOT": 0}, "tle": {"line1": "1 34088U 97051CX  25337.15248571  .00034721  00000+0  35306-2 0  9993", "line2": "2 34088  86.3861  35.1266 0005128 211.9517 177.5165 14.90613486885995"}}, "geometry": {"type": "Point", "coordinates": [-143.43767448027128, -23.487153014892677]}}, {"type": "Feature", "properties": {"norad_id": 34091, "name": "IRIDIUM 33 DEB", "group": "iridium-33-debris", "lat": -4.902580951265374, "lon": 70.76809404401162, "alt_km": 610.8404415146551, "timestamp": "2025-12-03T10:52:57.839933+00:00", "meta": {"OBJECT_NAME": "IRIDIUM 33 DEB", "OBJECT_ID": "1997-051DA", "EPOCH": "2025-12-02T05:42:26.763264", "MEAN_MOTION": 14.80503091, "ECCENTRICITY": 0.0032917, "INCLINATION": 86.342, "RA_OF_ASC_NODE": 71.638, "ARG_OF_PERICENTER": 331.035, "MEAN_ANOMALY": 28.9043, "EPHEMERIS_TYPE": 0, "CLASSIFICATION_TYPE": "U", "NORAD_CAT_ID": 34091, "ELEMENT_SET_NO": 999, "REV_AT_EPOCH": 87711, "BSTAR": 0.0059169, "MEAN_MOTION_DOT": 0.00045975, "MEAN_MOTION_DDOT": 0}, "tle": {"line1": "1 34091U 97051DA  25336.23780976  .00045975  00000+0  59169-2 0  9991", "line2": "2 34091  86.3420  71.6380 0032917 331.0350  28.9043 14.80503091877115"}}, "geometry": {"type": "Point", "coordinates": [70.76809404401162, -4.902580951265374]}}, {"type": "Feature", "properties": {"norad_id": 34097, "name": "IRIDIUM 33 DEB", "group": "iridium-33-debris", "lat": -3.7252689789361297, "lon": 5.258921742251512, "alt_km": 731.0475733589119, "timestamp": "2025-12-03T10:52:57.839945+00:00", "meta": {"OBJECT_NAME": "IRIDIUM 33 DEB", "OBJECT_ID": "1997-051DG", "EPOCH": "2025-12-03T02:31:49.024992", "MEAN_MOTION": 14.34656827, "ECCENTRICITY": 0.0083703, "INCLINATION": 86.2008, "RA_OF_ASC_NODE": 5.6603, "ARG_OF_PERICENTER": 33.4512, "MEAN_ANOMALY": 327.1931, "EPHEMERIS_TYPE": 0, "CLASSIFICATION_TYPE": "U", "NORAD_CAT_ID": 34097, "ELEMENT_SET_NO": 999, "REV_AT_EPOCH": 86981, "BSTAR": 0.0016815, "MEAN_MOTION_DOT": 4.966e-05, "MEAN_MOTION_DDOT": 0}, "tle": {"line1": "1 34097U 97051DG  25337.10542853  .00004966  00000+0  16815-2 0  9990", "line2": "2 34097  86.2008   5.6603 0083703  33.4512 327.1931 14.34656827869812"}}, "geometry": {"type": "Point", "coordinates": [5.258921742251512, -3.7252689789361297]}}, {"type": "Feature", "properties": {"norad_id": 34145, "name": "IRIDIUM 33 DEB", "group": "iridium-33-debris", "lat": 14.54243939702336, "lon": -22.352042050332503, "alt_km": 764.6681399344461, "timestamp": "2025-12-03T10:52:57.839956+00:00", "meta": {"OBJECT_NAME": "IRIDIUM 33 DEB", "OBJECT_ID": "1997-051DY", "EPOCH": "2025-12-03T00:49:25.529664", "MEAN_MOTION": 14.42178924, "ECCENTRICITY": 0.005527, "INCLINATION": 86.2113, "RA_OF_ASC_NODE": 336.8496, "ARG_OF_PERICENTER": 124.685, "MEAN_ANOMALY": 235.9576, "EPHEMERIS_TYPE": 0, "CLASSIFICATION_TYPE": "U", "NORAD_CAT_ID": 34145, "ELEMENT_SET_NO": 999, "REV_AT_EPOCH": 87498, "BSTAR": 0.0013049, "MEAN_MOTION_DOT": 4.395e-05, "MEAN_MOTION_DDOT": 0}, "tle": {"line1": "1 34145U 97051DY  25337.03432326  .00004395  00000+0  13049-2 0  9991", "line2": "2 34145  86.2113 336.8496 0055270 124.6850 235.9576 14.42178924874989"}}, "geometry": {"type": "Point", "coordinates": [-22.352042050332503, 14.54243939702336]}}, {"type": "Feature", "properties": {"norad_id": 34146, "name": "IRIDIUM 33 DEB", "group": "iridium-33-debris", "lat": 32.80790460683457, "lon": 171.50190746611946, "alt_km": 732.6763710932655, "timestamp": "2025-12-03T10:52:57.839967+00:00", "meta": {"OBJECT_NAME": "IRIDIUM 33 DEB", "OBJECT_ID": "1997-051DZ", "EPOCH": "2025-12-03T02:11:34.445760", "MEAN_MOTION": 14.48936814, "ECCENTRICITY": 0.0024976, "INCLINATION": 86.2837, "RA_OF_ASC_NODE": 354.0631, "ARG_OF_PERICENTER": 256.2583, "MEAN_ANOMALY": 163.5864, "EPHEMERIS_TYPE": 0, "CLASSIFICATION_TYPE": "U", "NORAD_CAT_ID": 34146, "ELEMENT_SET_NO": 999, "REV_AT_EPOCH": 87967, "BSTAR": 0.001285, "MEAN_MOTION_DOT": 4.904e-05, "MEAN_MOTION_DDOT": 0}, "tle": {"line1": "1 34146U 97051DZ  25337.09137090  .00004904  00000+0  12850-2 0  9993", "line2": "2 34146  86.2837 354.0631 0024976 256.2583 163.5864 14.48936814879673"}}, "geometry": {"type": "Point", "coordinates": [171.50190746611946, 32.80790460683457]}}, {"type": "Feature", "properties": {"norad_id": 34159, "name": "IRIDIUM 33 DEB", "group": "iridium-33-debris", "lat": -33.142670100936314, "lon": -125.41210575361255, "alt_km": 775.4156125843365, "timestamp": "2025-12-03T10:52:57.839977+00:00", "meta": {"OBJECT_NAME": "IRIDIUM 33 DEB", "OBJECT_ID": "1997-051EN", "EPOCH": "2025-12-03T04:53:03.077376", "MEAN_MOTION": 14.38453701, "ECCENTRICITY": 0.0026522, "INCLINATION": 86.3516, "RA_OF_ASC_NODE": 52.3067, "ARG_OF_PERICENTER": 321.2041, "MEAN_ANOMALY": 38.7252, "EPHEMERIS_TYPE": 0, "CLASSIFICATION_TYPE": "U", "NORAD_CAT_ID": 34159, "ELEMENT_SET_NO": 999, "REV_AT_EPOCH": 87822, "BSTAR": 0.0005403, "MEAN_MOTION_DOT": 1.674e-05, "MEAN_MOTION_DDOT": 0}, "tle": {"line1": "1 34159U 97051EN  25337.20350784  .00001674  00000+0  54030-3 0  9995", "line2": "2 34159  86.3516  52.3067 0026522 321.2041  38.7252 14.38453701878226"}}, "geometry": {"type": "Point", "coordinates": [-125.41210575361255, -33.142670100936314]}}, {"type": "Feature", "properties": {"norad_id": 34350, "name": "IRIDIUM 33 DEB", "group": "iridium-33-debris", "lat": 11.763133542858858, "lon": 7.602891258127731, "alt_km": 756.0745625308646, "timestamp": "2025-12-03T10:52:57.839988+00:00", "meta": {"OBJECT_NAME": "IRIDIUM 33 DEB", "OBJECT_ID": "1997-051ES", "EPOCH": "2025-12-03T02:46:10.970400", "MEAN_MOTION": 14.45350997, "ECCENTRICITY": 0.0021834, "INCLINATION": 86.3282, "RA_OF_ASC_NODE": 6.9833, "ARG_OF_PERICENTER": 165.5973, "MEAN_ANOMALY": 248.6185, "EPHEMERIS_TYPE": 0, "CLASSIFICATION_TYPE": "U", "NORAD_CAT_ID": 34350, "ELEMENT_SET_NO": 999, "REV_AT_EPOCH": 88154, "BSTAR": 0.00041343, "MEAN_MOTION_DOT": 1.476e-05, "MEAN_MOTION_DDOT": 0}, "tle": {"line1": "1 34350U 97051ES  25337.11540475  .00001476  00000+0  41343-3 0  9999", "line2": "2 34350  86.3282   6.9833 0021834 165.5973 248.6185 14.45350997881546"}}, "geometry": {"type": "Point", "coordinates": [7.602891258127731, 11.763133542858858]}}, {"type": "Feature", "properties": {"norad_id": 34366, "name": "IRIDIUM 33 DEB", "group": "iridium-33-debris", "lat": 51.75898919649898, "lon": 57.97015053125159, "alt_km": 715.2801878685204, "timestamp": "2025-12-03T10:52:57.839998+00:00", "meta": {"OBJECT_NAME": "IRIDIUM 33 DEB", "OBJECT_ID": "1997-051FJ", "EPOCH": "2025-12-03T04:10:00.139008", "MEAN_MOTION": 14.53908427, "ECCENTRICITY": 0.0021712, "INCLINATION": 86.371, "RA_OF_ASC_NODE": 53.4727, "ARG_OF_PERICENTER": 170.4441, "MEAN_ANOMALY": 218.0174, "EPHEMERIS_TYPE": 0, "CLASSIFICATION_TYPE": "U", "NORAD_CAT_ID": 34366, "ELEMENT_SET_NO": 999, "REV_AT_EPOCH": 88043, "BSTAR": 0.0017069, "MEAN_MOTION_DOT": 7.223e-05, "MEAN_MOTION_DDOT": 0}, "tle": {"line1": "1 34366U 97051FJ  25337.17361272  .00007223  00000+0  17069-2 0  9991", "line2": "2 34366  86.3710  53.4727 0021712 170.4441 218.0174 14.53908427880430"}}, "geometry": {"type": "Point", "coordinates": [57.97015053125159, 51.75898919649898]}}]}